#aV2008  8 14  0  0   .00000000      96 DD+AD WGS84 FIT  NGA
## 1492 345600.00000000   900.00000000 54692  .0000000000000
+   31     2  3  4  5  6  7  8  9 10 11 12 13 14 15 16 17 18
+         19 20 21 22 23 24 25 26 27 28 29 30 31 32  0  0  0
+          0  0  0  0  0  0  0  0  0  0  0  0  0  0  0  0  0
+          0  0  0  0  0  0  0  0  0  0  0  0  0  0  0  0  0
+          0  0  0  0  0  0  0  0  0  0  0  0  0  0  0  0  0
++         0  0  0  0  0  0  0  0  0  0  0  0  0  0  0  0  0
++         0  0  0  0  0  0  0  0  0  0  0  0  0  0  0  0  0
++         0  0  0  0  0  0  0  0  0  0  0  0  0  0  0  0  0
++         0  0  0  0  0  0  0  0  0  0  0  0  0  0  0  0  0
++         0  0  0  0  0  0  0  0  0  0  0  0  0  0  0  0  0
%c cc cc ccc ccc cccc cccc cccc cccc ccccc ccccc ccccc ccccc
%c cc cc ccc ccc cccc cccc cccc cccc ccccc ccccc ccccc ccccc
%f  0.0000000  0.000000000  0.00000000000  0.000000000000000
%f  0.0000000  0.000000000  0.00000000000  0.000000000000000
%i    0    0    0    0      0      0      0      0         0
%i    0    0    0    0      0      0      0      0         0
/*      NGA, ST. LOUIS,MO.                                  
/*   EPHEMERIS COMPUTED FROM  3 DAYS OF DATA                
/* CCCCCCCCCCCCCCCCCCCCCCCCCCCCCCCCCCCCCCCCCCCCCCCCCCCCCCCCC
/* CCCCCCCCCCCCCCCCCCCCCCCCCCCCCCCCCCCCCCCCCCCCCCCCCCCCCCCCC
*  2008  8 14 11 45   .00000000                                                 
P  2  13580.022165  13322.987671 -18819.726943    194.968672                    
V  2  -1602.534040  23527.987553  15252.451215      -.027641                    
P  3 -24528.499885 -10627.387398    861.861852    269.488995                    
V  3    235.345312  -3855.175340 -30717.891565       .052598                    
P  4   7532.469201  22744.076508 -11155.809927   -142.297016                    
V  4  -3542.098021  14098.552983  26957.795457      -.104346                    
P  5  21325.214871 -15675.614035  -1281.960244    602.336856                    
V  5   3029.173296   2135.487972  31401.457012     -2.777751                    
P  6 -22351.284384 -14117.703729  -2321.387172    166.979282                    
V  6   4555.995714  -1701.526965 -30964.523076       .010986                    
P  7  -7741.366022  23071.911903 -10563.504682      8.306537                    
V  7  -2235.129941 -13435.925338 -27873.146824       .040099                    
P  8   -708.283207  26219.015262   1756.361519   -165.810363                    
V  8  -2642.659740   2173.313517 -32491.575702      -.014410                    
P  9  13550.046014  -9451.931653  20123.696185      9.986457                    
V  9   1580.274015  26990.895386  11389.453493       .017063                    
P 10  20290.242584   2915.250630 -17201.630477     -3.837601                    
V 10 -18328.288857  11236.124619 -19552.615412      -.003085                    
P 11 -13563.629796  12060.872116  19139.472011     21.677423                    
V 11  -6429.482677 -24294.740355  11003.526874      -.006398                    
P 12  24064.186600 -10624.396795   3330.030188   -354.548570                    
V 12  -2303.611651   4399.929812  31536.306727       .011157                    
P 13  -7011.295423  12738.142226 -22345.424137    267.590726                    
V 13 -23304.056792 -15497.695297  -1523.646046       .013471                    
P 14 -11190.416549 -18958.842870  15045.577662   -232.295585                    
V 14  16530.625158   9089.177608  23803.940494       .045513                    
P 15  23609.831776   4557.919964  11317.731707   -159.776573                    
V 15  11134.682278   9367.934734 -27041.993094      -.064835                    
P 16 -15935.161445  -7183.128209 -19995.391135    112.232927                    
V 16  22036.494443 -12771.612125 -12729.264991      -.018820                    
P 17  11545.271052  19116.190021  14548.319130     38.941834                    
V 17 -16647.058021  -7940.284045  23547.504639      -.000928                    
P 18  12584.638459 -18211.257576  14596.594742   -145.141653                    
V 18  17559.259269  -6032.963657 -23342.775599       .041899                    
P 19 -22965.542066  -5318.854618  12516.024835     34.679018                    
V 19 -11583.690438 -10822.545947 -25822.052161       .003629                    
P 20 -23210.722919  12850.933665    713.096549    107.490018                    
V 20   -757.459566  -3387.687273  31431.708485      -.010502                    
P 21   4842.010240 -25216.100204  -5161.956111     54.488211                    
V 21   3786.464483   7115.283001 -30629.708235      -.014014                    
P 22  -1031.960329 -16459.121850  20969.528326    211.308971                    
V 22  23902.010296 -11078.807823  -7640.343553      -.002560                    
P 23 -17385.678313   5108.545032 -19573.610399    368.937239                    
V 23 -20539.084736 -13575.790386  14489.497953       .016328                    
P 24  12871.324223 -16385.344525 -16462.816667    117.024691                    
V 24    443.826726  21210.493092 -20287.929066       .029212                    
P 25  -9704.234634  18566.013637 -16076.533251   -223.013545                    
V 25  -3422.264614 -20793.387239 -21302.316206      -.195100                    
P 26  23632.624586  10173.042466   7128.644108    309.631488                    
V 26   7209.271751   6431.000755 -30417.365810       .061726                    
P 27  -4111.316521  24847.294074  -7553.968511    210.033426                    
V 27  -3059.658332 -10411.788301 -30048.938232       .027758                    
P 28   -202.609300  16565.481707  21078.495157    -21.828318                    
V 28 -23435.622859  11157.572995  -9494.704239      -.003468                    
P 29  10396.985268 -11291.233101 -21557.829270    -39.922635                    
V 29  23231.970122  15005.789200   3358.839344       .007352                    
P 30  16581.104999 -18364.859869  -9878.054369     91.118261                    
V 30  11794.552492  -3877.741568  28103.874186       .020318                    
P 31  -8810.490326 -21092.556342 -13233.395315    -25.071678                    
V 31   2411.454025 -17130.320524  25419.822267      -.000517                    
P 32 -24866.781067   5261.950994   7812.439726    313.196921                    
V 32   7542.023998  -6098.831845  29941.787508       .016828                    
EOF
